{
  "type": "FeatureCollection",
  "features": [
    {
      "type": "Feature",
      "properties": {
        "norad_id": 24946,
        "name": "IRIDIUM 33",
        "group": "iridium-33-debris",
        "lat": -85.89315933681473,
        "lon": -51.69743589035,
        "alt_km": 781.5166925967433,
        "timestamp": "2025-12-16T10:53:45.855655+00:00",
        "meta_object_name": "IRIDIUM 33",
        "meta_object_id": "1997-051C",
        "meta_epoch": "2025-12-15T18:35:22.364160",
        "meta_mean_motion": 14.35039593,
        "meta_eccentricity": 0.00073898,
        "meta_inclination": 86.387,
        "meta_ra_of_asc_node": 66.9479,
        "meta_arg_of_pericenter": 189.767,
        "meta_mean_anomaly": 170.3384,
        "meta_ephemeris_type": 0,
        "meta_classification_type": "U",
        "meta_norad_cat_id": 24946,
        "meta_element_set_no": 999,
        "meta_rev_at_epoch": 47878,
        "meta_bstar": 0.00010981675,
        "meta_mean_motion_dot": 3.33e-06,
        "meta_mean_motion_ddot": 0,
        "tle_line1": "1 24946U 97051C   25349.77456440  .00000333  00000+0  10982-3 0  9998",
        "tle_line2": "2 24946  86.3870  66.9479 0007389 189.7670 170.3384 14.35039593478787"
      },
      "geometry": {
        "type": "Point",
        "coordinates": [
          -51.69743589035,
          -85.89315933681473
        ]
      }
    },
    {
      "type": "Feature",
      "properties": {
        "norad_id": 33773,
        "name": "IRIDIUM 33 DEB",
        "group": "iridium-33-debris",
        "lat": -25.35949160862719,
        "lon": 57.30602047579964,
        "alt_km": 762.0219507831544,
        "timestamp": "2025-12-16T10:53:45.855694+00:00",
        "meta_object_name": "IRIDIUM 33 DEB",
        "meta_object_id": "1997-051L",
        "meta_epoch": "2025-12-15T21:42:07.717536",
        "meta_mean_motion": 14.43264072,
        "meta_eccentricity": 0.00127761,
        "meta_inclination": 86.4007,
        "meta_ra_of_asc_node": 59.2485,
        "meta_arg_of_pericenter": 137.1315,
        "meta_mean_anomaly": 223.0884,
        "meta_ephemeris_type": 0,
        "meta_classification_type": "U",
        "meta_norad_cat_id": 33773,
        "meta_element_set_no": 999,
        "meta_rev_at_epoch": 88393,
        "meta_bstar": 0.00029336975,
        "meta_mean_motion_dot": 1.008e-05,
        "meta_mean_motion_ddot": 0,
        "tle_line1": "1 33773U 97051L   25349.90425599  .00001008  00000+0  29337-3 0  9996",
        "tle_line2": "2 33773  86.4007  59.2485 0012776 137.1315 223.0884 14.43264072883938"
      },
      "geometry": {
        "type": "Point",
        "coordinates": [
          57.30602047579964,
          -25.35949160862719
        ]
      }
    },
    {
      "type": "Feature",
      "properties": {
        "norad_id": 33775,
        "name": "IRIDIUM 33 DEB",
        "group": "iridium-33-debris",
        "lat": 34.046029080605514,
        "lon": 50.43083112723842,
        "alt_km": 754.9133916330284,
        "timestamp": "2025-12-16T10:53:45.855710+00:00",
        "meta_object_name": "IRIDIUM 33 DEB",
        "meta_object_id": "1997-051N",
        "meta_epoch": "2025-12-15T22:14:31.483392",
        "meta_mean_motion": 14.4147533,
        "meta_eccentricity": 0.00146392,
        "meta_inclination": 86.3635,
        "meta_ra_of_asc_node": 48.1931,
        "meta_arg_of_pericenter": 144.9355,
        "meta_mean_anomaly": 35.1176,
        "meta_ephemeris_type": 0,
        "meta_classification_type": "U",
        "meta_norad_cat_id": 33775,
        "meta_element_set_no": 999,
        "meta_rev_at_epoch": 88186,
        "meta_bstar": 0.00029905843,
        "meta_mean_motion_dot": 9.91e-06,
        "meta_mean_motion_ddot": 0,
        "tle_line1": "1 33775U 97051N   25349.92675328  .00000991  00000+0  29906-3 0  9999",
        "tle_line2": "2 33775  86.3635  48.1931 0014639 144.9355  35.1176 14.41475330881864"
      },
      "geometry": {
        "type": "Point",
        "coordinates": [
          50.43083112723842,
          34.046029080605514
        ]
      }
    },
    {
      "type": "Feature",
      "properties": {
        "norad_id": 33776,
        "name": "IRIDIUM 33 DEB",
        "group": "iridium-33-debris",
        "lat": -40.98934730552201,
        "lon": -97.6511373489156,
        "alt_km": 763.241711930621,
        "timestamp": "2025-12-16T10:53:45.855723+00:00",
        "meta_object_name": "IRIDIUM 33 DEB",
        "meta_object_id": "1997-051P",
        "meta_epoch": "2025-12-15T19:23:17.167776",
        "meta_mean_motion": 14.38240494,
        "meta_eccentricity": 0.00147154,
        "meta_inclination": 86.4039,
        "meta_ra_of_asc_node": 79.4876,
        "meta_arg_of_pericenter": 180.2609,
        "meta_mean_anomaly": 297.1088,
        "meta_ephemeris_type": 0,
        "meta_classification_type": "U",
        "meta_norad_cat_id": 33776,
        "meta_element_set_no": 999,
        "meta_rev_at_epoch": 88126,
        "meta_bstar": 0.00026808097,
        "meta_mean_motion_dot": 8.35e-06,
        "meta_mean_motion_ddot": 0,
        "tle_line1": "1 33776U 97051P   25349.80783759  .00000835  00000+0  26808-3 0  9990",
        "tle_line2": "2 33776  86.4039  79.4876 0014715 180.2609 297.1088 14.38240494881262"
      },
      "geometry": {
        "type": "Point",
        "coordinates": [
          -97.6511373489156,
          -40.98934730552201
        ]
      }
    },
    {
      "type": "Feature",
      "properties": {
        "norad_id": 33777,
        "name": "IRIDIUM 33 DEB",
        "group": "iridium-33-debris",
        "lat": -60.650929898299324,
        "lon": -139.94533892576925,
        "alt_km": 710.7850156576797,
        "timestamp": "2025-12-16T10:53:45.855736+00:00",
        "meta_object_name": "IRIDIUM 33 DEB",
        "meta_object_id": "1997-051Q",
        "meta_epoch": "2025-12-15T13:59:42.150336",
        "meta_mean_motion": 14.55637018,
        "meta_eccentricity": 0.00053352,
        "meta_inclination": 86.3788,
        "meta_ra_of_asc_node": 33.9668,
        "meta_arg_of_pericenter": 235.7351,
        "meta_mean_anomaly": 124.3352,
        "meta_ephemeris_type": 0,
        "meta_classification_type": "U",
        "meta_norad_cat_id": 33777,
        "meta_element_set_no": 999,
        "meta_rev_at_epoch": 88575,
        "meta_bstar": 0.00059945783,
        "meta_mean_motion_dot": 2.637e-05,
        "meta_mean_motion_ddot": 0,
        "tle_line1": "1 33777U 97051Q   25349.58312674  .00002637  00000+0  59946-3 0  9991",
        "tle_line2": "2 33777  86.3788  33.9668 0005335 235.7351 124.3352 14.55637018885759"
      },
      "geometry": {
        "type": "Point",
        "coordinates": [
          -139.94533892576925,
          -60.650929898299324
        ]
      }
    },
    {
      "type": "Feature",
      "properties": {
        "norad_id": 33850,
        "name": "IRIDIUM 33 DEB",
        "group": "iridium-33-debris",
        "lat": 24.049655801528104,
        "lon": 30.21886235171064,
        "alt_km": 756.0623331122652,
        "timestamp": "2025-12-16T10:53:45.855749+00:00",
        "meta_object_name": "IRIDIUM 33 DEB",
        "meta_object_id": "1997-051T",
        "meta_epoch": "2025-12-15T20:35:54.826944",
        "meta_mean_motion": 14.42152489,
        "meta_eccentricity": 0.00125282,
        "meta_inclination": 86.3416,
        "meta_ra_of_asc_node": 28.8388,
        "meta_arg_of_pericenter": 151.5907,
        "meta_mean_anomaly": 21.8219,
        "meta_ephemeris_type": 0,
        "meta_classification_type": "U",
        "meta_norad_cat_id": 33850,
        "meta_element_set_no": 999,
        "meta_rev_at_epoch": 88197,
        "meta_bstar": 0.00028672748,
        "meta_mean_motion_dot": 9.64e-06,
        "meta_mean_motion_ddot": 0,
        "tle_line1": "1 33850U 97051T   25349.85827346  .00000964  00000+0  28673-3 0  9994",
        "tle_line2": "2 33850  86.3416  28.8388 0012528 151.5907  21.8219 14.42152489881978"
      },
      "geometry": {
        "type": "Point",
        "coordinates": [
          30.21886235171064,
          24.049655801528104
        ]
      }
    },
    {
      "type": "Feature",
      "properties": {
        "norad_id": 33853,
        "name": "IRIDIUM 33 DEB",
        "group": "iridium-33-debris",
        "lat": -11.063042825952564,
        "lon": 168.9669324596496,
        "alt_km": 774.5707734028601,
        "timestamp": "2025-12-16T10:53:45.855762+00:00",
        "meta_object_name": "IRIDIUM 33 DEB",
        "meta_object_id": "1997-051W",
        "meta_epoch": "2025-12-15T12:14:47.907744",
        "meta_mean_motion": 13.99079468,
        "meta_eccentricity": 0.02070108,
        "meta_inclination": 85.9998,
        "meta_ra_of_asc_node": 348.5966,
        "meta_arg_of_pericenter": 227.2361,
        "meta_mean_anomaly": 254.6583,
        "meta_ephemeris_type": 0,
        "meta_classification_type": "U",
        "meta_norad_cat_id": 33853,
        "meta_element_set_no": 999,
        "meta_rev_at_epoch": 85384,
        "meta_bstar": 0.0014178207,
        "meta_mean_motion_dot": 2.481e-05,
        "meta_mean_motion_ddot": 0,
        "tle_line1": "1 33853U 97051W   25349.51027671  .00002481  00000+0  14178-2 0  9993",
        "tle_line2": "2 33853  85.9998 348.5966 0207010 227.2361 254.6583 13.99079468853843"
      },
      "geometry": {
        "type": "Point",
        "coordinates": [
          168.9669324596496,
          -11.063042825952564
        ]
      }
    }
  ]
}